STARLINK-36993          
1 67994U 26039J   26065.25002315 -.01480647  64128-3 -35893-2 0  9998
2 67994  42.9976  76.2004 0001489 268.8759 250.6175 15.95477487  2320
STARLINK-36968          
1 67995U 26039K   26065.25002315 -.01491534  65178-3 -35624-2 0  9994
2 67995  42.9976  76.1863 0001533 273.9313 251.0122 15.95752504  2329
STARLINK-36979          
1 67996U 26039L   26065.25002315 -.01501621  65899-3 -36136-2 0  9993
2 67996  42.9973  76.1912 0001522 270.4294 252.5397 15.95615530  2327
STARLINK-36994          
1 67997U 26039M   26065.25002315 -.01483166  64696-3 -34876-2 0  9990
2 67997  42.9975  76.1751 0001548 272.4161 256.8586 15.96037119  2323
STARLINK-36988          
1 67998U 26039N   26065.25002315 -.01497102  65727-3 -35467-2 0  9999
2 67998  42.9977  76.1804 0001627 268.5852 258.6871 15.95902739  2321
STARLINK-36926          
1 67999U 26039P   26065.25002315 -.01483774  64840-3 -34614-2 0  9998
2 67999  42.9976  76.1702 0001652 269.1381 262.2335 15.96182419  2322
STARLINK-36931          
1 68000U 26039Q   26065.25002315 -.01477397  64413-3 -34226-2 0  9991
2 68000  42.9977  76.1660 0001627 269.5445 263.4816 15.96308657  2328
STARLINK-36903          
1 68001U 26039R   26065.25002315 -.01471641  64044-3 -33831-2 0  9999
2 68001  42.9978  76.1607 0001510 269.2270 265.9555 15.96448984  2320
STARLINK-36898          
1 68002U 26039S   26065.25002315 -.01472530  64297-3 -33343-2 0  9996
2 68002  42.9977  76.1500 0001581 269.3286 269.9077 15.96724232  2324
STARLINK-36862          
1 68003U 26039T   26065.25002315 -.01461991  63625-3 -32630-2 0  9998
2 68003  42.9979  76.1405 0001534 269.9631 273.0237 15.96984525  2326
STARLINK-36888          
1 68004U 26039U   26065.25002315 -.01465759  63660-3 -33454-2 0  9999
2 68004  42.9979  76.1558 0001481 268.7456 268.4022 15.96579125  2325
STARLINK-36910          
1 68005U 26039V   26065.25002315 -.01465050  63786-3 -32930-2 0  9991
2 68005  42.9977  76.1450 0001534 271.4772 269.7552 15.96856726  2323
STARLINK-36889          
1 68006U 26039W   26065.25002315 -.01455514  63194-3 -32250-2 0  9994
2 68006  42.9977  76.1355 0001479 273.4809 271.3597 15.97115209  2322
STARLINK-36592          
1 68007U 26039X   26065.25002315 -.01455930  63315-3 -32020-2 0  9997
2 68007  42.9977  76.1314 0001531 267.6539 279.0257 15.97249175  2320
STARLINK-36911          
1 68008U 26039Y   26065.25002315 -.01447708  62745-3 -31608-2 0  9999
2 68008  42.9978  76.1264 0001570 267.0553 281.5881 15.97379282  2323
STARLINK-36956          
1 68009U 26039Z   26065.25002315 -.01441099  62303-3 -31239-2 0  9997
2 68009  42.9975  76.1215 0001423 275.2546 275.2460 15.97507948  2322
